BEIDOU-3 M13            
1 43622U 18072A   24102.15913888 -.00000005  00000+0  00000+0 0  9991
2 43622  55.9421  89.1140 0009096 298.7238  61.1704  1.86231336 37812
BEIDOU-3 M14            
1 43623U 18072B   24101.48764516 -.00000002  00000+0  00000+0 0  9996
2 43623  55.9434  89.1294 0006758 317.3159  42.6196  1.86231287 37790
BEIDOU-3 M16            
1 43647U 18078A   24100.57689669 -.00000078  00000+0  00000+0 0  9995
2 43647  54.7635 327.8033 0008174  18.6083 341.4649  1.86232199 37280
BEIDOU-3 M15            
1 43648U 18078B   24100.16912282 -.00000075  00000+0  00000+0 0  9998
2 43648  54.7596 327.8206 0005259  28.2337 331.8395  1.86232056 37293
BEIDOU-3 G1             
1 43683U 18085A   24101.85952212 -.00000284  00000+0  00000+0 0  9991
2 43683   2.0273 112.2992 0003349 340.4498 196.2688  1.00274581 20063
COSMOS 2529             
1 43687U 18086A   24101.44074906  .00000016  00000+0  00000+0 0  9998
2 43687  64.3013 219.5768 0008529 260.0483  99.8443  2.13101989 42289
BEIDOU-3 M17            
1 43706U 18093A   24101.39229563  .00000012  00000+0  00000+0 0  9999
2 43706  54.2239 209.3765 0007851 281.5869  78.3275  1.86228156 36683
BEIDOU-3 M18            
1 43707U 18093B   24101.25816647  .00000012  00000+0  00000+0 0  9990
2 43707  54.2247 209.3727 0006235 315.3057  44.6458  1.86229622 36678
NAVSTAR 77 (USA 289)    
1 43873U 18109A   24101.52017757  .00000036  00000+0  00000+0 0  9993
2 43873  55.2698 123.7002 0028561 195.7118 336.7996  2.00552817 39073
BEIDOU-3 IGSO-1         
1 44204U 19023A   24101.64059501 -.00000233  00000+0  00000+0 0  9994
2 44204  57.5483  45.9289 0019428 215.2287 288.1633  1.00269106 18348
BEIDOU-2 G8             
1 44231U 19027A   24101.83133794 -.00000254  00000+0  00000+0 0  9999
2 44231   1.7828  73.4289 0003114 181.4117  28.4111  1.00275697 18088
COSMOS 2534             
1 44299U 19030A   24101.68030462  .00000017  00000+0  00000+0 0  9994
2 44299  64.3743 219.5156 0010708 284.4893  33.3852  2.13102023 37929
BEIDOU-3 IGSO-2         
1 44337U 19035A   24100.60028256 -.00000106  00000+0  00000+0 0  9991
2 44337  55.1680 165.8699 0032959 207.2351 160.3596  1.00262184 17664
NAVSTAR 78 (USA 293)    
1 44506U 19056A   24101.16184476 -.00000101  00000+0  00000+0 0  9996
2 44506  55.8403   2.7758 0039742 189.0444 342.6213  2.00570592 34064
BEIDOU-3 M24            
1 44542U 19061A   24101.32820852  .00000012  00000+0  00000+0 0  9995
2 44542  54.4512 209.6517 0007339 359.7363   0.2648  1.86231072 30935
BEIDOU-3 M23            
1 44543U 19061B   24101.62895649  .00000013  00000+0  00000+0 0  9996
2 44543  54.4500 209.6104 0004189 346.6728 127.1364  1.86231402 30936
BEIDOU-3 IGSO-3         
1 44709U 19073A   24101.91706109 -.00000187  00000+0  00000+0 0  9990
2 44709  56.1646 289.4320 0036524 179.5712 180.3738  1.00270053 16447
BEIDOU-3 M22            
1 44793U 19078A   24100.63712456 -.00000078  00000+0  00000+0 0  9997
2 44793  54.6114 327.7417 0007166  25.6835 334.3949  1.86231987 29775
BEIDOU-3 M21            
1 44794U 19078B   24100.23014511 -.00000076  00000+0  00000+0 0  9999
2 44794  54.5851 327.7333 0004960  21.2645 338.8002  1.86232462 29778
COSMOS 2544             
1 44850U 19088A   24101.28558496  .00000034  00000+0  00000+0 0  9997
2 44850  65.1637 100.4422 0015477 262.0269  97.8077  2.13102093 33718
BEIDOU-3 M19            
1 44864U 19090A   24102.34519424 -.00000006  00000+0  00000+0 0  9991
2 44864  55.8765  89.2820 0019873 282.4451 248.7615  1.86231612 29382
BEIDOU-3 M20            
1 44865U 19090B   24101.54853001 -.00000002  00000+0  00000+0 0  9991
2 44865  55.8776  89.3420 0017783 294.1583 152.6753  1.86231522 29360
BEIDOU-3 G2             
1 45344U 20017A   24102.53445451 -.00000148  00000+0  00000+0 0  9992
2 45344   2.2390  26.9108 0001197 316.2358 129.5327  1.00271326 15287
COSMOS 2545             
1 45358U 20018A   24101.95191152 -.00000069  00000+0  00000+0 0  9991
2 45358  64.7698 340.2931 0007380 254.7923 105.1796  2.13102505 31674
BEIDOU-3 G3             
1 45807U 20040A   24102.09493858 -.00000360  00000+0  00000+0 0  9993
2 45807   0.6765  32.3174 0006849 299.7717  12.3173  1.00265447 14099
NAVSTAR 79 (USA 304)    
1 45854U 20041A   24102.17462539 -.00000053  00000+0  00000+0 0  9996
2 45854  56.0704  60.0588 0040941 193.7705 287.3339  2.00559368 28044
GALAXY 30 (G-30)        
1 46114U 20056C   24101.63463959  .00000030  00000+0  00000+0 0  9993
2 46114   0.0179 237.1423 0001919 146.9268 278.7398  1.00271917 13290
COSMOS 2547             
1 46805U 20075A   24101.20103229  .00000015  00000+0  00000+0 0  9998
2 46805  64.6028 219.1531 0006811 236.9126 123.0104  2.13103039 26908
NAVSTAR 80 (USA 309)    
1 46826U 20078A   24101.77437184 -.00000001  00000+0  00000+0 0  9992
2 46826  54.2105 243.1450 0043200 194.4158 335.3944  2.00560527 25516
NAVSTAR 81 (USA 319)    
1 48859U 21054A   24101.45246999 -.00000103  00000+0  00000+0 0  9995
2 48859  55.3635   4.4468 0013819 223.6799 259.0276  2.00561845 20755
QZS-1R                  
1 49336U 21096A   24101.30552882 -.00000237  00000+0  00000+0 0  9995
2 49336  35.8059  91.5526 0751680 270.1655  82.0680  1.00282325  9015
GSAT0223 (GALILEO 27)   
1 49809U 21116A   24100.94528319 -.00000102  00000+0  00000+0 0  9991
2 49809  57.2957   3.2040 0000570 283.6504 257.6713  1.70475142 14575
GSAT0224 (GALILEO 28)   
1 49810U 21116B   24101.35358459 -.00000104  00000+0  00000+0 0  9997
2 49810  57.2966   3.1915 0000687 346.8136 197.5909  1.70475204 14601
COSMOS 2557             
1 52984U 22075A   24099.95769675 -.00000060  00000+0  00000+0 0  9997
2 52984  64.6949 342.4995 0011639 287.8444  72.0856  2.13101727 13681
COSMOS 2559             
1 54031U 22130A   24101.30815412 -.00000068  00000+0  00000+0 0  9996
2 54031  64.6657 342.5722 0004878 227.8314 132.1818  2.13101108 11685
COSMOS 2564             
1 54377U 22161A   24101.49961747  .00000017  00000+0  00000+0 0  9999
2 54377  64.7439 219.2355 0008970 214.3620 145.5698  2.13101992 10636
NAVSTAR 82 (USA 343)    
1 55268U 23009A   24100.24269122  .00000034  00000+0  00000+0 0  9990
2 55268  55.0839 179.8702 0002542 110.7750 258.8808  2.00568585  9227
BEIDOU-3 G4             
1 56564U 23066A   24102.12086413 -.00000121  00000+0  00000+0 0  9990
2 56564   2.2908 288.2128 0003550 190.9473 284.1962  1.00272389  3418
IRNSS-1J (NVS-01)       
1 56759U 23076A   24101.82837917 -.00000348  00000+0  00000+0 0  9997
2 56759   4.1707 267.6516 0005511  20.0223 339.5620  1.00266891  3113
COSMOS 2569             
1 57517U 23114A   24101.98660831  .00000028  00000+0  00000+0 0  9993
2 57517  64.8900  99.5923 0012968 294.7717  65.0991  2.13103993  5279
BEIDOU-3 M25            
1 58654U 23207A   24102.46056162 -.00000008  00000+0  00000+0 0  9998
2 58654  55.0588  89.3411 0005041 290.2582  69.6734  1.86232117  2003
BEIDOU-3 M26            
1 58655U 23207B   24102.25938254 -.00000007  00000+0  00000+0 0  9996
2 58655  55.0604  89.3333 0005651 275.8033  84.1185  1.86231755  1988
